[{"OBJECT_NAME":"RAPTOR1","OBJECT_ID":"2024-028C","EPOCH":"2026-03-09T12:42:01.746432","MEAN_MOTION":13.70310646,"ECCENTRICITY":0.0011567,"INCLINATION":39.9898,"RA_OF_ASC_NODE":141.7891,"ARG_OF_PERICENTER":33.7881,"MEAN_ANOMALY":326.3601,"EPHEMERIS_TYPE":0,"CLASSIFICATION_TYPE":"U","NORAD_CAT_ID":58957,"ELEMENT_SET_NO":999,"REV_AT_EPOCH":10338,"BSTAR":4.5249e-5,"MEAN_MOTION_DOT":-3.8e-7,"MEAN_MOTION_DDOT":0},{"OBJECT_NAME":"COSMOS 1553","OBJECT_ID":"1984-046A","EPOCH":"2026-03-09T17:42:43.516224","MEAN_MOTION":13.75612287,"ECCENTRICITY":0.00318022,"INCLINATION":82.9389,"RA_OF_ASC_NODE":326.0167,"ARG_OF_PERICENTER":188.5839,"MEAN_ANOMALY":226.0993,"EPHEMERIS_TYPE":0,"CLASSIFICATION_TYPE":"U","NORAD_CAT_ID":14973,"ELEMENT_SET_NO":999,"REV_AT_EPOCH":9805,"BSTAR":6.2618789e-5,"MEAN_MOTION_DOT":7.6e-7,"MEAN_MOTION_DDOT":0}]
